{
    "links": {
        "self": "http://www.neowsapp.com/rest/v1/neo/3374162?api_key=iIulBulltgU6a56xZRHN4H3l9WmuAYTsLGpBGhQ2"
    },
    "id": "3374162",
    "neo_reference_id": "3374162",
    "name": "(2007 HP)",
    "designation": "2007 HP",
    "nasa_jpl_url": "http://ssd.jpl.nasa.gov/sbdb.cgi?sstr=3374162",
    "absolute_magnitude_h": 22.9,
    "estimated_diameter": {
        "kilometers": {
            "estimated_diameter_min": 0.0699125232,
            "estimated_diameter_max": 0.1563291544
        },
        "meters": {
            "estimated_diameter_min": 69.9125232246,
            "estimated_diameter_max": 156.3291544087
        },
        "miles": {
            "estimated_diameter_min": 0.0434416145,
            "estimated_diameter_max": 0.097138403
        },
        "feet": {
            "estimated_diameter_min": 229.3718026961,
            "estimated_diameter_max": 512.8909429502
        }
    },
    "is_potentially_hazardous_asteroid": false,
    "close_approach_data": [
        {
            "close_approach_date": "1926-10-16",
            "close_approach_date_full": "1926-Oct-16 11:22",
            "epoch_date_close_approach": -1363610280000,
            "relative_velocity": {
                "kilometers_per_second": "25.7487110016",
                "kilometers_per_hour": "92695.3596058025",
                "miles_per_hour": "57597.2916395054"
            },
            "miss_distance": {
                "astronomical": "0.0431920209",
                "lunar": "16.8016961301",
                "kilometers": "6461434.327635483",
                "miles": "4014949.1155283454"
            },
            "orbiting_body": "Venus"
        },
        {
            "close_approach_date": "2007-04-13",
            "close_approach_date_full": "2007-Apr-13 18:36",
            "epoch_date_close_approach": 1176489360000,
            "relative_velocity": {
                "kilometers_per_second": "23.3580652363",
                "kilometers_per_hour": "84089.0348508398",
                "miles_per_hour": "52249.6561271788"
            },
            "miss_distance": {
                "astronomical": "0.0137991623",
                "lunar": "5.3678741347",
                "kilometers": "2064325.287864301",
                "miles": "1282712.2537213138"
            },
            "orbiting_body": "Earth"
        },
        {
            "close_approach_date": "2175-10-13",
            "close_approach_date_full": "2175-Oct-13 04:30",
            "epoch_date_close_approach": 6493840200000,
            "relative_velocity": {
                "kilometers_per_second": "16.1642798921",
                "kilometers_per_hour": "58191.407611713",
                "miles_per_hour": "36157.8776907336"
            },
            "miss_distance": {
                "astronomical": "0.2515639075",
                "lunar": "97.8583600175",
                "kilometers": "37633424.730877025",
                "miles": "23384325.782171945"
            },
            "orbiting_body": "Earth"
        }
    ],
    "orbital_data": {
        "orbit_id": "13",
        "orbit_determination_date": "2017-04-06 09:06:32",
        "first_observation_date": "2007-04-18",
        "last_observation_date": "2007-04-27",
        "data_arc_in_days": 9,
        "observations_used": 57,
        "orbit_uncertainty": "9",
        "minimum_orbit_intersection": ".00867012",
        "jupiter_tisserand_invariant": "3.444",
        "epoch_osculation": "2454213.5",
        "eccentricity": ".7567244727373271",
        "semi_major_axis": "1.971083202476513",
        "inclination": "2.785437446149019",
        "ascending_node_longitude": "34.13015004723514",
        "orbital_period": "1010.778189641069",
        "perihelion_distance": ".4795163053610716",
        "perihelion_argument": "67.52249673424687",
        "aphelion_distance": "3.462650099591956",
        "perihelion_time": "2454157.722597724514",
        "mean_anomaly": "19.8657480196574",
        "mean_motion": ".3561612267552363",
        "equinox": "J2000",
        "orbit_class": {
            "orbit_class_type": "APO",
            "orbit_class_description": "Near-Earth asteroid orbits which cross the Earth’s orbit similar to that of 1862 Apollo",
            "orbit_class_range": "a (semi-major axis) > 1.0 AU; q (perihelion) < 1.017 AU"
        }
    },
    "is_sentry_object": false
}